STARLINK-30592          
1 58102U 23161F   26068.55874102 -.00001107  00000+0 -25260-4 0  9992
2 58102  53.1603 165.9946 0001124  86.1642 273.9487 15.30182666134401
TEVEL2-6                
1 63215U 25052F   26068.64958975  .00021046  00000+0  70909-3 0  9996
2 63215  97.4016 325.0381 0004769  95.6604 264.5181 15.30760889 54861
